COMMENT,ORIGINATOR,NORAD_CAT_ID,OBJECT_NAME,OBJECT_TYPE,CLASSIFICATION_TYPE,INTLDES,EPOCH,EPOCH_MICROSECONDS,MEAN_MOTION,ECCENTRICITY,INCLINATION,RA_OF_ASC_NODE,ARG_OF_PERICENTER,MEAN_ANOMALY,EPHEMERIS_TYPE,ELEMENT_SET_NO,REV_AT_EPOCH,BSTAR,MEAN_MOTION_DOT,MEAN_MOTION_DDOT,FILE,TLE_LINE0,TLE_LINE1,TLE_LINE2,OBJECT_ID,OBJECT_NUMBER,SEMIMAJOR_AXIS,PERIOD,APOGEE,PERIGEE,DECAYED
"GENERATED VIA SPACETRACK.ORG API","18 SPCS","55091","SPACEBEE-164","PAYLOAD","U","23001CL","2024-03-08 02:35:28","3200","15.34844957","0.0011533","97.4361","132.6347","149.5043","210.6873","0","999","6550","0.0012861","0.00043658","0","4213599","0 SPACEBEE-164","1 55091U 23001CL  24068.10796300  .00043658  00000-0  12861-2 0  9998","2 55091  97.4361 132.6347 0011533 149.5043 210.6873 15.34844957 65500","2023-001CL","55091","6839.518","93.821","469.271","453.495","0"
"GENERATED VIA SPACETRACK.ORG API","18 SPCS","55091","SPACEBEE-164","PAYLOAD","U","23001CL","2024-03-08 10:24:52","125696","15.34873501","0.0011578","97.4361","132.9634","148.4312","211.7628","0","999","6555","0.0012659","0.00043007","0","4214683","0 SPACEBEE-164","1 55091U 23001CL  24068.43393664  .00043007  00000-0  12659-2 0  9993","2 55091  97.4361 132.9634 0011578 148.4312 211.7628 15.34873501 65550","2023-001CL","55091","6839.433","93.819","469.217","453.380","0"
"GENERATED VIA SPACETRACK.ORG API","18 SPCS","55091","SPACEBEE-164","PAYLOAD","U","23001CL","2024-03-08 15:06:30","388032","15.3488607","0.0011586","97.436","133.1606","147.7077","212.4878","0","999","6558","0.001071","0.00036357","0","4215142","0 SPACEBEE-164","1 55091U 23001CL  24068.62951838  .00036357  00000-0  10710-2 0  9993","2 55091  97.4360 133.1606 0011586 147.7077 212.4878 15.34886070 65583","2023-001CL","55091","6839.396","93.818","469.185","453.337","0"
"GENERATED VIA SPACETRACK.ORG API","18 SPCS","55091","SPACEBEE-164","PAYLOAD","U","23001CL","2024-03-09 03:37:31","556352","15.34928381","0.0011588","97.4358","133.6863","146.158","214.0405","0","999","6566","0.0011154","0.00037926","0","4215746","0 SPACEBEE-164","1 55091U 23001CL  24069.15105968  .00037926  00000-0  11154-2 0  9993","2 55091  97.4358 133.6863 0011588 146.1580 214.0405 15.34928381 65669","2023-001CL","55091","6839.270","93.815","469.061","453.210","0"
"GENERATED VIA SPACETRACK.ORG API","18 SPCS","55091","SPACEBEE-164","PAYLOAD","U","23001CL","2024-03-09 14:34:38","978976","15.34969947","0.0011607","97.4356","134.1465","144.6875","215.5139","0","999","6573","0.0011918","0.00040597","0","4216444","0 SPACEBEE-164","1 55091U 23001CL  24069.60739559  .00040597  00000-0  11918-2 0  9998","2 55091  97.4356 134.1465 0011607 144.6875 215.5139 15.34969947 65734","2023-001CL","55091","6839.147","93.813","468.950","453.074","0"
"GENERATED VIA SPACETRACK.ORG API","18 SPCS","55091","SPACEBEE-164","PAYLOAD","U","23001CL","2024-03-10 03:05:37","729824","15.3501264","0.0011584","97.4353","134.6723","143.0214","217.1829","0","999","6581","0.0011746","0.00040061","0","4217493","0 SPACEBEE-164","1 55091U 23001CL  24070.12890891  .00040061  00000-0  11746-2 0  9999","2 55091  97.4353 134.6723 0011584 143.0214 217.1829 15.35012640 65810","2023-001CL","55091","6839.020","93.810","468.807","452.963","0"
"GENERATED VIA SPACETRACK.ORG API","18 SPCS","55091","SPACEBEE-164","PAYLOAD","U","23001CL","2024-03-10 03:05:37","729824","15.3501264","0.0011584","97.4353","134.6723","143.0214","217.1829","0","999","6581","0.0011746","0.00040061","0","4218257","0 SPACEBEE-164","1 55091U 23001CL  24070.12890891  .00040061  00000-0  11746-2 0  9999","2 55091  97.4353 134.6723 0011584 143.0214 217.1829 15.35012640 65810","2023-001CL","55091","6839.020","93.810","468.807","452.963","0"
"GENERATED VIA SPACETRACK.ORG API","18 SPCS","55091","SPACEBEE-164","PAYLOAD","U","23001CL","2024-03-10 21:52:03","604512","15.35071109","0.0011642","97.435","135.461","140.3561","219.8535","0","999","6593","0.0010876","0.00037144","0","4218864","0 SPACEBEE-164","1 55091U 23001CL  24070.91115283  .00037144  00000-0  10876-2 0  9992","2 55091  97.4350 135.4610 0011642 140.3561 219.8535 15.35071109 65932","2023-001CL","55091","6838.846","93.807","468.673","452.750","0"
"GENERATED VIA SPACETRACK.ORG API","18 SPCS","55091","SPACEBEE-164","PAYLOAD","U","23001CL","2024-03-11 04:07:31","581120","15.35094172","0.0011635","97.4346","135.7238","139.5263","220.6848","0","999","6597","0.0010881","0.00037188","0","4219410","0 SPACEBEE-164","1 55091U 23001CL  24071.17189330  .00037188  00000-0  10881-2 0  9999","2 55091  97.4346 135.7238 0011635 139.5263 220.6848 15.35094172 65973","2023-001CL","55091","6838.778","93.805","468.600","452.686","0"
"GENERATED VIA SPACETRACK.ORG API","18 SPCS","55091","SPACEBEE-164","PAYLOAD","U","23001CL","2024-03-11 04:07:31","581120","15.35094172","0.0011635","97.4346","135.7238","139.5263","220.6848","0","999","6597","0.0010881","0.00037188","0","4220034","0 SPACEBEE-164","1 55091U 23001CL  24071.17189330  .00037188  00000-0  10881-2 0  9999","2 55091  97.4346 135.7238 0011635 139.5263 220.6848 15.35094172 65973","2023-001CL","55091","6838.778","93.805","468.600","452.686","0"
"GENERATED VIA SPACETRACK.ORG API","18 SPCS","55091","SPACEBEE-164","PAYLOAD","U","23001CL","2024-03-12 03:35:29","43744","15.35165691","0.0011647","97.434","136.7101","136.4655","223.751","0","999","6612","0.0010187","0.0003488","0","4222103","0 SPACEBEE-164","1 55091U 23001CL  24072.14964171  .00034880  00000-0  10187-2 0  9996","2 55091  97.4340 136.7101 0011647 136.4655 223.7510 15.35165691 66124","2023-001CL","55091","6838.565","93.801","468.395","452.466","0"
"GENERATED VIA SPACETRACK.ORG API","18 SPCS","55091","SPACEBEE-164","PAYLOAD","U","23001CL","2024-03-13 03:03:22","617504","15.35237993","0.0011633","97.4338","137.6965","133.4426","226.7787","0","999","6627","0.0010676","0.00036651","0","4222829","0 SPACEBEE-164","1 55091U 23001CL  24073.12734511  .00036651  00000-0  10676-2 0  9999","2 55091  97.4338 137.6965 0011633 133.4426 226.7787 15.35237993 66277","2023-001CL","55091","6838.351","93.797","468.171","452.261","0"
"GENERATED VIA SPACETRACK.ORG API","18 SPCS","55091","SPACEBEE-164","PAYLOAD","U","23001CL","2024-03-13 10:52:39","579168","15.35262134","0.001167","97.4335","138.0249","132.2309","227.9927","0","999","6632","0.0010464","0.00035947","0","4223455","0 SPACEBEE-164","1 55091U 23001CL  24073.45323587  .00035947  00000-0  10464-2 0  9994","2 55091  97.4335 138.0249 0011670 132.2309 227.9927 15.35262134 66322","2023-001CL","55091","6838.279","93.795","468.124","452.164","0"
"GENERATED VIA SPACETRACK.ORG API","18 SPCS","55091","SPACEBEE-164","PAYLOAD","U","23001CL","2024-03-14 04:05:03","107904","15.35322849","0.0011724","97.4332","138.748","129.5345","230.6936","0","999","6643","0.0011008","0.00037903","0","4224518","0 SPACEBEE-164","1 55091U 23001CL  24074.17017486  .00037903  00000-0  11008-2 0  9991","2 55091  97.4332 138.7480 0011724 129.5345 230.6936 15.35322849 66435","2023-001CL","55091","6838.099","93.791","467.981","451.947","0"
"GENERATED VIA SPACETRACK.ORG API","18 SPCS","55091","SPACEBEE-164","PAYLOAD","U","23001CL","2024-03-14 04:05:03","107904","15.35322849","0.0011724","97.4332","138.748","129.5345","230.6936","0","999","6643","0.0011008","0.00037903","0","4225152","0 SPACEBEE-164","1 55091U 23001CL  24074.17017486  .00037903  00000-0  11008-2 0  9991","2 55091  97.4332 138.7480 0011724 129.5345 230.6936 15.35322849 66435","2023-001CL","55091","6838.099","93.791","467.981","451.947","0"
"GENERATED VIA SPACETRACK.ORG API","18 SPCS","55091","SPACEBEE-164","PAYLOAD","U","23001CL","2024-03-14 15:02:00","426048","15.35362267","0.001173","97.4332","139.2085","128.3875","231.8423","0","999","6650","0.0010955","0.00037767","0","4225645","0 SPACEBEE-164","1 55091U 23001CL  24074.62639382  .00037767  00000-0  10955-2 0  9994","2 55091  97.4332 139.2085 0011730 128.3875 231.8423 15.35362267 66504","2023-001CL","55091","6837.982","93.789","467.868","451.826","0"
"GENERATED VIA SPACETRACK.ORG API","18 SPCS","55091","SPACEBEE-164","PAYLOAD","U","23001CL","2024-03-15 03:32:47","668416","15.35404389","0.0011667","97.4333","139.7346","126.8773","233.3541","0","999","6658","0.0011507","0.00039737","0","4226724","0 SPACEBEE-164","1 55091U 23001CL  24075.14777394  .00039737  00000-0  11507-2 0  9991","2 55091  97.4333 139.7346 0011667 126.8773 233.3541 15.35404389 66587","2023-001CL","55091","6837.857","93.786","467.699","451.744","0"
"GENERATED VIA SPACETRACK.ORG API","18 SPCS","55091","SPACEBEE-164","PAYLOAD","U","23001CL","2024-03-15 03:32:47","668416","15.35404389","0.0011667","97.4333","139.7346","126.8773","233.3541","0","999","6658","0.0011507","0.00039737","0","4227250","0 SPACEBEE-164","1 55091U 23001CL  24075.14777394  .00039737  00000-0  11507-2 0  9991","2 55091  97.4333 139.7346 0011667 126.8773 233.3541 15.35404389 66587","2023-001CL","55091","6837.857","93.786","467.699","451.744","0"
"GENERATED VIA SPACETRACK.ORG API","18 SPCS","55091","SPACEBEE-164","PAYLOAD","U","23001CL","2024-03-16 03:00:27","900288","15.35480887","0.0011671","97.4332","140.721","123.7193","236.5164","0","999","6673","0.0010615","0.00036725","0","4228482","0 SPACEBEE-164","1 55091U 23001CL  24076.12532292  .00036725  00000-0  10615-2 0  9999","2 55091  97.4332 140.7210 0011671 123.7193 236.5164 15.35480887 66735","2023-001CL","55091","6837.630","93.782","467.475","451.514","0"
"GENERATED VIA SPACETRACK.ORG API","18 SPCS","55091","SPACEBEE-164","PAYLOAD","U","23001CL","2024-03-16 17:05:02","166432","15.35520987","0.0011678","97.4335","141.3129","121.8082","238.43","0","999","6682","0.00096348","0.00033355","0","4228996","0 SPACEBEE-164","1 55091U 23001CL  24076.71183063  .00033355  00000-0  96348-3 0  9996","2 55091  97.4335 141.3129 0011678 121.8082 238.4300 15.35520987 66826","2023-001CL","55091","6837.510","93.779","467.360","451.391","0"
